#dV2023  1  4 22  0  0.00000000    1682       CTS   FIT  GFZ
## 2243 338400.00000000    30.00000000 59948 0.9166666666667
+    1   L64  0  0  0  0  0  0  0  0  0  0  0  0  0  0  0  0
+          0  0  0  0  0  0  0  0  0  0  0  0  0  0  0  0  0
+          0  0  0  0  0  0  0  0  0  0  0  0  0  0  0  0  0
+          0  0  0  0  0  0  0  0  0  0  0  0  0  0  0  0  0
+          0  0  0  0  0  0  0  0  0  0  0  0  0  0  0  0  0
++         0  0  0  0  0  0  0  0  0  0  0  0  0  0  0  0  0
++         0  0  0  0  0  0  0  0  0  0  0  0  0  0  0  0  0
++         0  0  0  0  0  0  0  0  0  0  0  0  0  0  0  0  0
++         0  0  0  0  0  0  0  0  0  0  0  0  0  0  0  0  0
++         0  0  0  0  0  0  0  0  0  0  0  0  0  0  0  0  0
%c L  cc GPS ccc cccc cccc cccc cccc ccccc ccccc ccccc ccccc
%c cc cc ccc ccc cccc cccc cccc cccc ccccc ccccc ccccc ccccc
%f  0.0000000  0.000000000  0.00000000000  0.000000000000000
%f  0.0000000  0.000000000  0.00000000000  0.000000000000000
%i    0    0    0    0      0      0      0      0         0
%i    0    0    0    0      0      0      0      0         0
/* CCCCCCCCCCCCCCCCCCCCCCCCCCCCCCCCCCCCCCCCCCCCCCCCCCCCCCCCCCCCCCCCCCCCCCCCCCCCC
/* C                             GFZ RSO-ORBIT                                 C
/* C DOI: https://doi.org/10.5880/GFZ_ORBIT/RSO/L64_G_v02                      C
/* C                                                                           C
/* C DORIS        RMS: not applicable                                          C
/* C GNSS-E Code  RMS: not applicable                                          C
/* C GNSS-E Phase RMS: not applicable                                          C
/* C GNSS-G Code  RMS:  48.652 [cm]   Obs.acc.:     14349 Obs.eli.:      1272  C
/* C GNSS-G Phase RMS:   4.010 [mm]   Obs.acc.:     14349 Obs.eli.:      1272  C
/* C SLR          RMS:   3.119 [cm]   Obs.acc.:        50 Obs.eli.:         0  C
/* C                                                                           C
/* CCCCCCCCCCCCCCCCCCCCCCCCCCCCCCCCCCCCCCCCCCCCCCCCCCCCCCCCCCCCCCCCCCCCCCCCCCCCC
*  2023  1  5  3 31 30.00000000
PL64  -5180.867479  -3544.630047   2783.377940  19751.518750
VL64  23751.658359  20014.724539  69660.203297 999999.999999
*  2023  1  5  3 32  0.00000000
PL64  -5106.633755  -3482.801767   2990.773439  19751.977931
VL64  25733.754227  21198.858813  68590.687422 999999.999999
*  2023  1  5  3 32 30.00000000
PL64  -5026.488541  -3417.469113   3194.846036  19752.437312
VL64  27692.263494  22350.775201  67445.146182 999999.999999
*  2023  1  5  3 33  0.00000000
PL64  -4940.506075  -3348.730503   3395.369598  19752.896453
VL64  29624.872692  23469.306215  66224.889940 999999.999999
*  2023  1  5  3 33 30.00000000
PL64  -4848.767492  -3276.687781   3592.122053  19753.355504
VL64  31529.295880  24553.333929  64931.313813 999999.999999
*  2023  1  5  3 34  0.00000000
PL64  -4751.360741  -3201.446071   3784.885636  19753.814603
VL64  33403.278236  25601.791684  63565.894643 999999.999999
*  2023  1  5  3 34 30.00000000
PL64  -4648.380486  -3123.113617   3973.447131  19754.274113
VL64  35244.598178  26613.664790  62130.187770 999999.999999
*  2023  1  5  3 35  0.00000000
PL64  -4539.928002  -3041.801631   4157.598104  19754.733930
VL64  37051.069295  27587.990830  60625.825138 999999.999999
*  2023  1  5  3 35 30.00000000
PL64  -4426.111069  -2957.624131   4337.135130  19755.192643
VL64  38820.543037  28523.860331  59054.513201 999999.999999
*  2023  1  5  3 36  0.00000000
PL64  -4307.043851  -2870.697783   4511.860010  19755.650724
VL64  40550.910796  29420.417267  57418.030381 999999.999999
*  2023  1  5  3 36 30.00000000
PL64  -4182.846779  -2781.141743   4681.579988  19756.109276
VL64  42240.105800  30276.859650  55718.225396 999999.999999
*  2023  1  5  3 37  0.00000000
PL64  -4053.646413  -2689.077489   4846.107955  19756.568087
VL64  43886.105844  31092.440477  53957.015457 999999.999999
*  2023  1  5  3 37 30.00000000
PL64  -3919.575315  -2594.628655   5005.262656  19757.027105
VL64  45486.936006  31866.468216  52136.383467 999999.999999
*  2023  1  5  3 38  0.00000000
PL64  -3780.771894  -2497.920871   5158.868878  19757.486148
VL64  47040.670641  32598.306662  50258.375244 999999.999999
*  2023  1  5  3 38 30.00000000
PL64  -3637.380263  -2399.081587   5306.757636  19757.945075
VL64  48545.435030  33287.374926  48325.097421 999999.999999
*  2023  1  5  3 39  0.00000000
PL64  -3489.550078  -2298.239918   5448.766357  19758.404181
VL64  49999.407323  33933.147787  46338.715875 999999.999999
*  2023  1  5  3 39 30.00000000
PL64  -3337.436379  -2195.526467   5584.739049  19758.863382
VL64  51400.821330  34535.156303  44301.453950 999999.999999
*  2023  1  5  3 40  0.00000000
PL64  -3181.199418  -2091.073158   5714.526476  19759.322906
VL64  52747.969682  35092.988880  42215.589529 999999.999999
*  2023  1  5  3 40 30.00000000
PL64  -3021.004475  -1985.013065   5837.986310  19759.782421
VL64  54039.206215  35606.291949  40083.450367 999999.999999
*  2023  1  5  3 41  0.00000000
PL64  -2857.021679  -1877.480235   5954.983275  19760.241775
VL64  55272.946265  36074.768756  37907.409587 999999.999999
*  2023  1  5  3 41 30.00000000
PL64  -2689.425821  -1768.609522   6065.389282  19760.701034
VL64  56447.665501  36498.178315  35689.885185 999999.999999
*  2023  1  5  3 42  0.00000000
PL64  -2518.396170  -1658.536418   6169.083565  19761.160285
VL64  57561.902947  36876.336446  33433.341254 999999.999999
*  2023  1  5  3 42 30.00000000
PL64  -2344.116279  -1547.396883   6265.952815  19761.619689
VL64  58614.266924  37209.116643  31140.283555 999999.999999
*  2023  1  5  3 43  0.00000000
PL64  -2166.773766  -1435.327168   6355.891293  19762.079065
VL64  59603.436033  37496.448824  28813.252785 999999.999999
*  2023  1  5  3 43 30.00000000
PL64  -1986.560111  -1322.463655   6438.800931  19762.538439
VL64  60528.158729  37738.318087  26454.822878 999999.999999
*  2023  1  5  3 44  0.00000000
PL64  -1803.670441  -1208.942683   6514.591434  19762.997866
VL64  61387.256152  37934.765534  24067.598001 999999.999999
*  2023  1  5  3 44 30.00000000
PL64  -1618.303308  -1094.900389   6583.180352  19763.457196
VL64  62179.622346  38085.887223  21654.205983 999999.999999
*  2023  1  5  3 45  0.00000000
PL64  -1430.660476   -980.472540   6644.493152  19763.916322
VL64  62904.221719  38191.831028  19217.296660 999999.999999
*  2023  1  5  3 45 30.00000000
PL64  -1240.946711   -865.794384   6698.463287  19764.375346
VL64  63560.090058  38252.795790  16759.543599 999999.999999
*  2023  1  5  3 46  0.00000000
PL64  -1049.369559   -751.000495   6745.032265  19764.834526
VL64  64146.337836  38269.032095  14283.642212 999999.999999
*  2023  1  5  3 46 30.00000000
PL64   -856.139121   -636.224619   6784.149705  19765.293767
VL64  64662.151612  38240.842337  11792.305491 999999.999999
*  2023  1  5  3 47  0.00000000
PL64   -661.467823   -521.599516   6815.773389  19765.752942
VL64  65106.794002  38168.579838   9288.260937 999999.999999
*  2023  1  5  3 47 30.00000000
PL64   -465.570191   -407.256811   6839.869302 999999.999999
VL64  65479.604248  38052.647716   6774.248740 999999.999999
*  2023  1  5  3 48  0.00000000
PL64   -268.662615   -293.326848   6856.411665  19766.671574
VL64  65779.999880  37893.498425   4253.019966 999999.999999
*  2023  1  5  3 48 30.00000000
PL64    -70.963112   -179.938537   6865.382964  19767.131185
VL64  66007.478670  37691.633876   1727.333042 999999.999999
*  2023  1  5  3 49  0.00000000
PL64    127.308916    -67.219211   6866.773966  19767.590761
VL64  66161.619173  37447.604338   -800.050894 999999.999999
*  2023  1  5  3 49 30.00000000
PL64    325.932921     44.705519   6860.583722  19768.050275
VL64  66242.080219  37162.006165  -3326.371153 999999.999999
*  2023  1  5  3 50  0.00000000
PL64    524.687454    155.711896   6846.819562  19768.509682
VL64  66248.600884  36835.480069  -5848.868812 999999.999999
*  2023  1  5  3 50 30.00000000
PL64    723.350404    265.678155   6825.497088  19768.968979
VL64  66181.001753  36468.710991  -8364.788314 999999.999999
*  2023  1  5  3 51  0.00000000
PL64    921.699245    374.484647   6796.640159  19769.428242
VL64  66039.185796  36062.427674 -10871.381144 999999.999999
*  2023  1  5  3 51 30.00000000
PL64   1119.511284    482.013976   6760.280866  19769.887550
VL64  65823.138105  35617.401045 -13365.908670 999999.999999
*  2023  1  5  3 52  0.00000000
PL64   1316.563907    588.151121   6716.459499  19770.346873
VL64  65532.926615  35134.443764 -15845.644519 999999.999999
*  2023  1  5  3 52 30.00000000
PL64   1512.634828    692.783560   6665.224502  19770.806230
VL64  65168.702018  34614.409389 -18307.878677 999999.999999
*  2023  1  5  3 53  0.00000000
PL64   1707.502336    795.801391   6606.632421  19771.265577
VL64  64730.697042  34058.190318 -20749.919947 999999.999999
*  2023  1  5  3 53 30.00000000
PL64   1900.945543    897.097446   6540.747846  19771.724879
VL64  64219.227129  33466.716436 -23169.098224 999999.999999
*  2023  1  5  3 54  0.00000000
PL64   2092.744629    996.567400   6467.643341  19772.184226
VL64  63634.690115  32840.953351 -25562.767644 999999.999999
*  2023  1  5  3 54 30.00000000
PL64   2282.681093   1094.109875   6387.399370  19772.643569
VL64  62977.565929  32181.900501 -27928.307765 999999.999999
*  2023  1  5  3 55  0.00000000
PL64   2470.537998   1189.626544   6300.104218  19773.102857
VL64  62248.418201  31490.590567 -30263.125835 999999.999999
*  2023  1  5  3 55 30.00000000
PL64   2656.100224   1283.022225   6205.853898  19773.562127
VL64  61447.894247  30768.088498 -32564.661951 999999.999999
*  2023  1  5  3 56  0.00000000
PL64   2839.154714   1374.204977   6104.752053  19774.021332
VL64  60576.722827  30015.489234 -34830.392537 999999.999999
*  2023  1  5  3 56 30.00000000
PL64   3019.490720   1463.086186   5996.909836  19774.480645
VL64  59635.713145  29233.916045 -37057.831410 999999.999999
EOF
